LACUNASAT-3
1 46492U 20068G   24354.90019897  .00188033  00000-0  16380-2 0  9995
2 46492  97.8147 336.4881 0006700  52.3672 307.8195 15.68402638233536
DEKART
1 46493U 20068H   24354.56139175  .00012666  00000-0  56608-3 0  9996
2 46493  97.8405 321.4342 0014907  43.1087 317.1312 15.21379014232518
NORBY
1 46494U 20068J   24354.55865251  .00016279  00000-0  66331-3 0  9995
2 46494  97.8399 322.9929 0013827  40.0969 320.1285 15.24471503232616
SALSAT (TUBSAT 22)
1 46495U 20068K   24354.48199349  .00010782  00000-0  52766-3 0  9996
2 46495  97.8414 319.3463 0014297  43.9012 316.3354 15.18293803232376
NETSAT-4
1 46504U 20068U   24354.43865576  .00018003  00000-0  77309-3 0  9998
2 46504  97.8288 317.7508 0011321  81.6077 278.6441 15.22700427232280
NETSAT-3
1 46505U 20068V   24354.36749619  .00016648  00000-0  73200-3 0  9999
2 46505  97.8276 316.9490 0010658  89.8377 270.4080 15.21920254232251
NETSAT-1
1 46506U 20068W   24354.89309338  .00011205  00000-0  54078-3 0  9994
2 46506  97.8300 316.3546 0009575  97.9539 262.2781 15.18818585232258
NETSAT-2
1 46507U 20068X   24354.33169675  .00017593  00000-0  75954-3 0  9994
2 46507  97.8276 317.2153 0008680 101.3076 258.9135 15.22547649232213
ARKTIKA-M1
1 47719U 21016A   24346.21013880  .00000144  00000-0  00000+0 0  9998
2 47719  63.1345 131.0499 7012162 268.4789  17.4348  2.00604149 27701
SIMBA
1 47941U 21022K   24355.11604541  .00023852  00000-0  76110-3 0  9991
2 47941  97.4400 251.2671 0010636 198.5915 161.4940 15.32444672206820
HIBER-3
1 47942U 21022L   24354.66475323  .00186972  00000-0  16139-2 0  9992
2 47942  97.4306 259.8232 0008109 123.1318 237.0722 15.68621268207383
UNISAT-7
1 47945U 21022P   24354.25845588  .00014501  00000-0  60598-3 0  9991
2 47945  97.4388 247.7416 0011259 206.2222 153.8446 15.23664696206428
NANOSAT-C BR2
1 47950U 21022U   24355.12618165  .00311856  00000-0  17215-2 0  9993
2 47950  97.4240 261.2717 0008891 117.9832 242.2336 15.78749704207526
CUBESX-SIRIUS-HSE
1 47951U 21022V   24355.14016120  .00055256  00000-0  12196-2 0  9991
2 47951  97.4394 254.8109 0008411 174.3502 185.7843 15.43664340207066
CUBESX-HSE (RS13S)
1 47952U 21022W   24355.13305235  .00053560  00000-0  11694-2 0  9997
2 47952  97.4389 254.9552 0008550 172.7761 187.3612 15.43993867207079
KSU-CUBESAT
1 47954U 21022Y   24354.68447920  .00081016  00000-0  12447-2 0  9990
2 47954  97.4398 257.3280 0007544 152.6066 207.5586 15.53954759206907
CHALLENGEONE
1 47956U 21022AA  24355.16969494  .00063059  00000-0  12122-2 0  9998
2 47956  97.4383 255.7860 0008072 166.9272 193.2188 15.47686664206913
GRBALPHA
1 47959U 21022AD  24355.15628468  .00051399  00000-0  11237-2 0  9993
2 47959  97.4390 255.1465 0008412 172.8689 187.2681 15.43965955205903
ORBICRAFT-ZORKIY (RS15S)
1 47960U 21022AE  24355.13045625  .00073029  00000-0  12887-2 0  9997
2 47960  97.4416 257.4722 0007423 159.4533 200.7019 15.50104738206713
CSS (TIANHE-1)
1 48274U 21035A   24355.12917529  .00023296  00000-0  28225-3 0  9995
2 48274  41.4678  29.9781 0002008 248.8424 111.2200 15.60096743208171
FENGYUN-4B
1 48808U 21047A   24355.11893674 -.00000321  00000-0  00000+0 0  9996
2 48808   0.0185   2.3989 0010146  62.4511 171.7101  1.00273400 13106
TUBIN
1 48900U 21059X   24355.09459335  .00031712  00000-0  72195-3 0  9996
2 48900  97.6625 146.9937 0005400 144.2411 215.9198 15.42889124193454
BRO-4
1 49066U 21073A   24355.19151500  .00157295  00000-0  15052-2 0  9993
2 49066  97.4283  75.5755 0009659 292.7680  67.2558 15.66137469185473
LEDSAT
1 49069U 21073D   24355.10492602  .00034198  00000-0  89048-3 0  9991
2 49069  97.4146  66.3713 0014034 344.9348  15.1477 15.38708992184891
CUTE-LASP
1 49263U 21088D   24354.75191016  .00038678  00000-0  11306-2 0  9996
2 49263  97.4740  61.0452 0011351 143.8932 216.3080 15.35119552177941
HEAD-2F
1 49322U 21091H   24355.12993754  .00055114  00000-0  74778-3 0  9994
2 49322  97.4192 195.9784 0008031 108.4040 251.8089 15.57441647177547
JILIN-01 GAOFEN 2F
1 49338U 21097A   24355.17749250  .00023533  00000-0  73705-3 0  9991
2 49338  97.5992 111.9720 0007570 237.3189 122.7322 15.33073642174211
TEIKYOSAT-4 (OORURI)
1 49396U 21102B   24355.04569054  .00003319  00000-0  22978-3 0  9996
2 49396  97.4361  33.5666 0013081   9.6479 350.4998 15.06266933170715
Z-SAT
1 49399U 21102E   24355.08803563  .00005809  00000-0  34259-3 0  9990
2 49399  97.4062  35.7784 0018527 342.6386  17.4209 15.11794293171041
KOSEN-1
1 49402U 21102H   24355.07177435  .00009537  00000-0  49392-3 0  9992
2 49402  97.3982  38.0387 0016133 322.0185  37.9909 15.16299285171265
CAMSAT XW-3 (CAS-9)
1 50466U 21131B   24355.13820668  .00001276  00000-0  41601-3 0  9993
2 50466  98.5203  79.3465 0003158 295.1210  64.9650 14.40361515156766
SICH-2-1 (SICH-2-30)
1 51030U 22002AY  24355.13973913  .00034667  00000-0  77899-3 0  9999
2 51030  97.3630  61.6682 0006181  93.0673 267.1282 15.43253484162918
IRIS-A
1 51044U 22002BN  24354.58669181  .00050340  00000-0  92481-3 0  9991
2 51044  97.3584  62.1450 0004816  90.7919 269.3883 15.49070966162931
VZLUSAT-2
1 51085U 22002DF  24355.12673250  .00029140  00000-0  73175-3 0  9992
2 51085  97.3620  59.2190 0008927 106.8144 253.4082 15.39912718162755
INSPIRESAT-1
1 51657U 22013B   24355.05079943  .00020190  00000-0  59101-3 0  9999
2 51657  97.5125  14.2399 0005524 215.3618 144.7259 15.35261464157984
GOES-18
1 51850U 22021A   24350.92587427  .00000104  00000-0  00000+0 0  9998
2 51850   0.0085 106.1825 0000838 191.9314 343.2730  1.00273503 10301
MERIDIAN-10
1 52145U 22030A   24354.62092619  .00000201  00000-0  00000+0 0  9999
2 52145  62.6568 198.1232 6773950 273.6713  17.4577  2.00601691 20091
BRO-7
1 52174U 22033T   24355.10091083  .00035728  00000-0  51209-3 0  9995
2 52174  97.3125  80.9441 0006440 324.8701  35.2128 15.56063170152129
BRO-6
1 52422U 22047AE  24355.14270764  .00010483  00000-0  36401-3 0  9993
2 52422  97.3816  72.9718 0005403 217.5031 142.5834 15.29938731147474
CONNECTA-T1
1 52739U 22057H   24354.30481448  .00031763  00000-0  86504-3 0  9998
2 52739  97.5954 119.9459 0006423 229.6970 130.3713 15.37419192142529
PLATFORM-1
1 52770U 22057AQ  24355.08694797  .00021535  00000-0  54576-3 0  9992
2 52770  97.5919 124.1246 0008631 187.0396 173.0730 15.39701173142909
STEP CUBELAB-II
1 52897U 22065D   24355.11766223  .00001899  00000-0  39162-3 0  9994
2 52897  98.1448 132.8289 0007698 292.1410  67.8974 14.61568643131975
RANDEV
1 52898U 22065E   24355.10624956  .00002075  00000-0  42466-3 0  9998
2 52898  98.1439 132.9602 0007005 293.9546  66.0922 14.61823548131700
SNUGLITE-II
1 52899U 22065F   24354.31976294  .00002526  00000-0  51019-3 0  9991
2 52899  98.1429 132.3570 0006594 296.8237  63.2290 14.62250757131309
MIMAN
1 52900U 22065G   24354.90367320  .00001478  00000-0  31363-3 0  9998
2 52900  98.1468 132.1231 0006562 290.9912  69.0586 14.60581381130946
GREENCUBE (IO-117)
1 53106U 22080B   24353.24910383 -.00000003  00000-0  00000+0 0  9997
2 53106  70.1357 128.5751 0008289  65.4193 294.7329  6.42557685 57099
ROBUSTA 1F (MTCUBE-2)
1 53109U 22080E   24354.76847958 -.00000003  00000-0  00000+0 0  9995
2 53109  70.1203 127.5927 0008347  47.7243 312.4123  6.42584132 57086
BLUEWALKER-3
1 53807U 22111AL  24354.45189147  .00010884  00000-0  36897-3 0  9994
2 53807  53.2346  56.9586 0006757 306.1453  53.8924 15.31069157126563
CAMSAT CAS-5A (FO-118)
1 54684U 22167C   24355.16818528  .00116868  00000-0  14949-2 0  9992
2 54684  97.6141 147.7634 0006557 217.6431 142.4367 15.58800953112944
ELEKTRO-L4
1 55506U 23016A   24354.29372967 -.00000052  00000-0  00000-0 0  9994
2 55506   0.0739 237.9457 0003775  26.4977  95.5087  1.00271675  6858
BDSAT-2
1 55098U 23001CT  24354.74003228  .00140584  00000-0  13603-2 0  9994
2 55098  97.3955  62.1009 0006260 209.4827 150.6081 15.65944174109514
SHARJAHSAT-1
1 55104U 23001CZ  24355.11784731  .00015327  00000-0  55990-3 0  9991
2 55104  97.3993  51.3190 0007750 257.9187 102.1184 15.28169777108856
EOS-07
1 55562U 23019A   24355.02206418  .00652617  19059-3  12137-2 0  9990
2 55562  37.1731 105.4513 0009078  21.7834 338.3328 15.99993734105404
KILICSAT
1 56181U 23054D   24354.97921032  .00187543  00000-0  12365-2 0  9993
2 56181  97.3313 256.2691 0004516 116.0360 244.1370 15.75074208 94927
METEOR M2-3
1 57166U 23091A   24355.11487410  .00000059  00000-0  45078-4 0  9997
2 57166  98.6888  47.8881 0003205 323.1907  36.9051 14.23961444 77089
STRATOSAT-TK1 (RS52S)
1 57167U 23091B   24355.15740714  .00028318  00000-0  11482-2 0  9999
2 57167  97.5837  48.8836 0011846 190.3067 169.7929 15.24533956 81768
RESHUCUBE-2 (RS37S)
1 57168U 23091C   24355.13628370  .00010081  00000-0  55845-3 0  9991
2 57168  97.5852  46.1339 0014488 198.1455 161.9261 15.13923494 81588
RASSVET 1-1
1 57169U 23091D   24355.17306944  .00009367  00000-0  53007-3 0  9999
2 57169  97.5889  46.2663 0012776 187.1410 172.9640 15.13200263 81582
RASSVET 1-2
1 57170U 23091E   24355.17317920  .00009297  00000-0  52632-3 0  9992
2 57170  97.5895  46.3055 0011640 178.1405 181.9872 15.13201463 81580
RASSVET 1-3
1 57171U 23091F   24355.17287106  .00009388  00000-0  53114-3 0  9992
2 57171  97.5891  46.2823 0013439 198.1661 161.9092 15.13201039 81584
UMKA-1 (RS40S)
1 57172U 23091G   24355.13751278  .00007759  00000-0  45615-3 0  9992
2 57172  97.5862  45.5576 0014955 200.1263 159.9379 15.11861007 81542
SATURN (RS43S)
1 57174U 23091J   24355.17259762  .00005040  00000-0  32606-3 0  9996
2 57174  97.5869  44.3342 0014079 214.1083 145.9242 15.08555952 81461
CUBEBEL-2 (EU11S)
1 57175U 23091K   24355.12053023  .00010430  00000-0  57538-3 0  9994
2 57175  97.5859  45.8756 0012907 211.3645 148.6818 15.14080308 81562
SITRO-AIS-5 (ANOKHIN)
1 57176U 23091L   24355.15714500  .00012435  00000-0  67683-3 0  9991
2 57176  97.5867  46.2048 0015286 199.4788 160.5861 15.14485811 81589
